[{"OBJECT_NAME":"ONEWEB-0403","OBJECT_ID":"2021-132Q","EPOCH":"2026-06-02T00:27:13.771296","MEAN_MOTION":13.18687788,"ECCENTRICITY":0.0001969,"INCLINATION":87.9166,"RA_OF_ASC_NODE":338.4735,"ARG_OF_PERICENTER":91.0616,"MEAN_ANOMALY":269.0742,"EPHEMERIS_TYPE":0,"CLASSIFICATION_TYPE":"U","NORAD_CAT_ID":50483,"ELEMENT_SET_NO":999,"REV_AT_EPOCH":21959,"BSTAR":5.4132e-05,"MEAN_MOTION_DOT":3.4e-07,"MEAN_MOTION_DDOT":0.0},{"OBJECT_NAME":"ONEWEB-0404","OBJECT_ID":"2021-132R","EPOCH":"2026-06-02T16:22:50.153088","MEAN_MOTION":13.11417737,"ECCENTRICITY":0.0002134,"INCLINATION":87.8903,"RA_OF_ASC_NODE":23.9538,"ARG_OF_PERICENTER":86.8862,"MEAN_ANOMALY":273.251,"EPHEMERIS_TYPE":0,"CLASSIFICATION_TYPE":"U","NORAD_CAT_ID":50484,"ELEMENT_SET_NO":999,"REV_AT_EPOCH":21379,"BSTAR":-0.0002713,"MEAN_MOTION_DOT":-8.3e-07,"MEAN_MOTION_DDOT":0.0},{"OBJECT_NAME":"ONEWEB-0405","OBJECT_ID":"2021-132S","EPOCH":"2026-06-02T00:46:40.465056","MEAN_MOTION":13.18685618,"ECCENTRICITY":0.0001675,"INCLINATION":87.9168,"RA_OF_ASC_NODE":338.4549,"ARG_OF_PERICENTER":102.8423,"MEAN_ANOMALY":257.2896,"EPHEMERIS_TYPE":0,"CLASSIFICATION_TYPE":"U","NORAD_CAT_ID":50485,"ELEMENT_SET_NO":999,"REV_AT_EPOCH":21999,"BSTAR":0.00012534999999999998,"MEAN_MOTION_DOT":6.2e-07,"MEAN_MOTION_DDOT":0.0},{"OBJECT_NAME":"ONEWEB-0406","OBJECT_ID":"2021-132T","EPOCH":"2026-06-02T00:34:30.811008","MEAN_MOTION":13.18688511,"ECCENTRICITY":0.0002405,"INCLINATION":87.9158,"RA_OF_ASC_NODE":338.4741,"ARG_OF_PERICENTER":92.9242,"MEAN_ANOMALY":267.2166,"EPHEMERIS_TYPE":0,"CLASSIFICATION_TYPE":"U","NORAD_CAT_ID":50486,"ELEMENT_SET_NO":999,"REV_AT_EPOCH":21962,"BSTAR":8.7268e-05,"MEAN_MOTION_DOT":4.7e-07,"MEAN_MOTION_DDOT":0.0},{"OBJECT_NAME":"ONEWEB-0407","OBJECT_ID":"2021-132U","EPOCH":"2026-06-02T00:24:48.671136","MEAN_MOTION":13.18686006,"ECCENTRICITY":0.0001618,"INCLINATION":87.9166,"RA_OF_ASC_NODE":338.4669,"ARG_OF_PERICENTER":87.5659,"MEAN_ANOMALY":272.5658,"EPHEMERIS_TYPE":0,"CLASSIFICATION_TYPE":"U","NORAD_CAT_ID":50487,"ELEMENT_SET_NO":999,"REV_AT_EPOCH":21956,"BSTAR":7.691000000000001e-05,"MEAN_MOTION_DOT":4.3e-07,"MEAN_MOTION_DDOT":0.0},{"OBJECT_NAME":"ONEWEB-0409","OBJECT_ID":"2021-132V","EPOCH":"2026-06-02T16:20:23.458848","MEAN_MOTION":13.11418695,"ECCENTRICITY":0.000203,"INCLINATION":87.8909,"RA_OF_ASC_NODE":23.9415,"ARG_OF_PERICENTER":90.7312,"MEAN_ANOMALY":269.4048,"EPHEMERIS_TYPE":0,"CLASSIFICATION_TYPE":"U","NORAD_CAT_ID":50488,"ELEMENT_SET_NO":999,"REV_AT_EPOCH":21368,"BSTAR":-0.0005613399999999999,"MEAN_MOTION_DOT":-1.86e-06,"MEAN_MOTION_DDOT":0.0},{"OBJECT_NAME":"ONEWEB-0412","OBJECT_ID":"2021-132W","EPOCH":"2026-06-02T01:57:04.005504","MEAN_MOTION":13.18688429,"ECCENTRICITY":0.0001814,"INCLINATION":87.9164,"RA_OF_ASC_NODE":338.463,"ARG_OF_PERICENTER":80.4558,"MEAN_ANOMALY":279.6779,"EPHEMERIS_TYPE":0,"CLASSIFICATION_TYPE":"U","NORAD_CAT_ID":50489,"ELEMENT_SET_NO":999,"REV_AT_EPOCH":21966,"BSTAR":0.00018931000000000002,"MEAN_MOTION_DOT":8.8e-07,"MEAN_MOTION_DDOT":0.0},{"OBJECT_NAME":"ONEWEB-0413","OBJECT_ID":"2021-132X","EPOCH":"2026-06-02T00:15:04.202784","MEAN_MOTION":13.18688102,"ECCENTRICITY":0.0001569,"INCLINATION":87.9156,"RA_OF_ASC_NODE":338.4767,"ARG_OF_PERICENTER":83.0151,"MEAN_ANOMALY":277.1159,"EPHEMERIS_TYPE":0,"CLASSIFICATION_TYPE":"U","NORAD_CAT_ID":50490,"ELEMENT_SET_NO":999,"REV_AT_EPOCH":21959,"BSTAR":-0.0020483000000000003,"MEAN_MOTION_DOT":-7.95e-06,"MEAN_MOTION_DDOT":0.0},{"OBJECT_NAME":"ONEWEB-0414","OBJECT_ID":"2021-132Y","EPOCH":"2026-06-02T01:42:29.824128","MEAN_MOTION":13.18684264,"ECCENTRICITY":0.000194,"INCLINATION":87.9166,"RA_OF_ASC_NODE":338.4452,"ARG_OF_PERICENTER":85.5889,"MEAN_ANOMALY":274.5465,"EPHEMERIS_TYPE":0,"CLASSIFICATION_TYPE":"U","NORAD_CAT_ID":50491,"ELEMENT_SET_NO":999,"REV_AT_EPOCH":21963,"BSTAR":0.00012418,"MEAN_MOTION_DOT":6.2e-07,"MEAN_MOTION_DDOT":0.0},{"OBJECT_NAME":"ONEWEB-0417","OBJECT_ID":"2021-132Z","EPOCH":"2026-06-02T01:54:38.217600","MEAN_MOTION":13.18686329,"ECCENTRICITY":0.0002022,"INCLINATION":87.9157,"RA_OF_ASC_NODE":338.4644,"ARG_OF_PERICENTER":93.2651,"MEAN_ANOMALY":266.8713,"EPHEMERIS_TYPE":0,"CLASSIFICATION_TYPE":"U","NORAD_CAT_ID":50492,"ELEMENT_SET_NO":999,"REV_AT_EPOCH":21961,"BSTAR":-0.00058414,"MEAN_MOTION_DOT":-2.17e-06,"MEAN_MOTION_DDOT":0.0},{"OBJECT_NAME":"ONEWEB-0418","OBJECT_ID":"2021-132AA","EPOCH":"2026-06-02T00:19:45.706944","MEAN_MOTION":13.18685973,"ECCENTRICITY":0.0002089,"INCLINATION":87.9164,"RA_OF_ASC_NODE":338.4756,"ARG_OF_PERICENTER":93.8568,"MEAN_ANOMALY":266.2803,"EPHEMERIS_TYPE":0,"CLASSIFICATION_TYPE":"U","NORAD_CAT_ID":50493,"ELEMENT_SET_NO":999,"REV_AT_EPOCH":21966,"BSTAR":0.00014406,"MEAN_MOTION_DOT":7e-07,"MEAN_MOTION_DDOT":0.0},{"OBJECT_NAME":"ONEWEB-0419","OBJECT_ID":"2021-132AB","EPOCH":"2026-06-02T00:46:12.010080","MEAN_MOTION":13.1866483,"ECCENTRICITY":0.0001967,"INCLINATION":87.9167,"RA_OF_ASC_NODE":338.4716,"ARG_OF_PERICENTER":97.3477,"MEAN_ANOMALY":262.7878,"EPHEMERIS_TYPE":0,"CLASSIFICATION_TYPE":"U","NORAD_CAT_ID":50494,"ELEMENT_SET_NO":999,"REV_AT_EPOCH":21958,"BSTAR":3.0925000000000006e-05,"MEAN_MOTION_DOT":2.5e-07,"MEAN_MOTION_DDOT":0.0},{"OBJECT_NAME":"ONEWEB-0420","OBJECT_ID":"2021-132AC","EPOCH":"2026-06-02T01:44:55.447872","MEAN_MOTION":13.18684457,"ECCENTRICITY":0.0001627,"INCLINATION":87.9157,"RA_OF_ASC_NODE":338.4679,"ARG_OF_PERICENTER":88.728,"MEAN_ANOMALY":271.4038,"EPHEMERIS_TYPE":0,"CLASSIFICATION_TYPE":"U","NORAD_CAT_ID":50495,"ELEMENT_SET_NO":999,"REV_AT_EPOCH":21958,"BSTAR":0.00017711,"MEAN_MOTION_DOT":8.3e-07,"MEAN_MOTION_DDOT":0.0},{"OBJECT_NAME":"ONEWEB-0421","OBJECT_ID":"2021-132AD","EPOCH":"2026-06-02T01:35:13.952544","MEAN_MOTION":13.18686304,"ECCENTRICITY":0.0002043,"INCLINATION":87.9161,"RA_OF_ASC_NODE":338.4659,"ARG_OF_PERICENTER":82.86,"MEAN_ANOMALY":277.2764,"EPHEMERIS_TYPE":0,"CLASSIFICATION_TYPE":"U","NORAD_CAT_ID":50496,"ELEMENT_SET_NO":999,"REV_AT_EPOCH":21962,"BSTAR":0.00015556,"MEAN_MOTION_DOT":7.4e-07,"MEAN_MOTION_DDOT":0.0},{"OBJECT_NAME":"ONEWEB-0424","OBJECT_ID":"2021-132AE","EPOCH":"2026-06-02T00:39:22.608000","MEAN_MOTION":13.18688159,"ECCENTRICITY":0.0001821,"INCLINATION":87.9166,"RA_OF_ASC_NODE":338.4714,"ARG_OF_PERICENTER":101.4207,"MEAN_ANOMALY":258.7129,"EPHEMERIS_TYPE":0,"CLASSIFICATION_TYPE":"U","NORAD_CAT_ID":50497,"ELEMENT_SET_NO":999,"REV_AT_EPOCH":21964,"BSTAR":6.3474e-05,"MEAN_MOTION_DOT":3.8e-07,"MEAN_MOTION_DDOT":0.0},{"OBJECT_NAME":"ONEWEB-0426","OBJECT_ID":"2021-132AF","EPOCH":"2026-06-01T12:44:20.509152","MEAN_MOTION":13.18688006,"ECCENTRICITY":0.0002526,"INCLINATION":87.9165,"RA_OF_ASC_NODE":338.5614,"ARG_OF_PERICENTER":85.4452,"MEAN_ANOMALY":274.6969,"EPHEMERIS_TYPE":0,"CLASSIFICATION_TYPE":"U","NORAD_CAT_ID":50498,"ELEMENT_SET_NO":999,"REV_AT_EPOCH":21952,"BSTAR":0.00016013,"MEAN_MOTION_DOT":7.6e-07,"MEAN_MOTION_DDOT":0.0}]