ONEWEB-0403             
1 50483U 21132Q   26153.01890939  .00000034  00000+0  54132-4 0  9990
2 50483  87.9166 338.4735 0001969  91.0616 269.0742 13.18687788219593
ONEWEB-0404             
1 50484U 21132R   26153.68252492 -.00000083  00000+0 -27130-3 0  9993
2 50484  87.8903  23.9538 0002134  86.8862 273.2510 13.11417737213793
ONEWEB-0405             
1 50485U 21132S   26153.03241279  .00000062  00000+0  12535-3 0  9992
2 50485  87.9168 338.4549 0001675 102.8423 257.2896 13.18685618219994
ONEWEB-0406             
1 50486U 21132T   26153.02396772  .00000047  00000+0  87268-4 0  9990
2 50486  87.9158 338.4741 0002405  92.9242 267.2166 13.18688511219624
ONEWEB-0407             
1 50487U 21132U   26153.01722999  .00000043  00000+0  76910-4 0  9992
2 50487  87.9166 338.4669 0001618  87.5659 272.5658 13.18686006219565
ONEWEB-0409             
1 50488U 21132V   26153.68082707 -.00000186  00000+0 -56134-3 0  9997
2 50488  87.8909  23.9415 0002030  90.7312 269.4048 13.11418695213681
ONEWEB-0412             
1 50489U 21132W   26153.08129636  .00000088  00000+0  18931-3 0  9997
2 50489  87.9164 338.4630 0001814  80.4558 279.6779 13.18688429219665
ONEWEB-0413             
1 50490U 21132X   26153.01046531 -.00000795  00000+0 -20483-2 0  9995
2 50490  87.9156 338.4767 0001569  83.0151 277.1159 13.18688102219599
ONEWEB-0414             
1 50491U 21132Y   26153.07117852  .00000062  00000+0  12418-3 0  9992
2 50491  87.9166 338.4452 0001940  85.5889 274.5465 13.18684264219631
ONEWEB-0417             
1 50492U 21132Z   26153.07960900 -.00000217  00000+0 -58414-3 0  9993
2 50492  87.9157 338.4644 0002022  93.2651 266.8713 13.18686329219612
ONEWEB-0418             
1 50493U 21132AA  26153.01372346  .00000070  00000+0  14406-3 0  9997
2 50493  87.9164 338.4756 0002089  93.8568 266.2803 13.18685973219664
ONEWEB-0419             
1 50494U 21132AB  26153.03208345  .00000025  00000+0  30925-4 0  9992
2 50494  87.9167 338.4716 0001967  97.3477 262.7878 13.18664830219589
ONEWEB-0420             
1 50495U 21132AC  26153.07286398  .00000083  00000+0  17711-3 0  9992
2 50495  87.9157 338.4679 0001627  88.7280 271.4038 13.18684457219588
ONEWEB-0421             
1 50496U 21132AD  26153.06613371  .00000074  00000+0  15556-3 0  9992
2 50496  87.9161 338.4659 0002043  82.8600 277.2764 13.18686304219624
ONEWEB-0424             
1 50497U 21132AE  26153.02734500  .00000038  00000+0  63474-4 0  9990
2 50497  87.9166 338.4714 0001821 101.4207 258.7129 13.18688159219647
ONEWEB-0426             
1 50498U 21132AF  26152.53079293  .00000076  00000+0  16013-3 0  9995
2 50498  87.9165 338.5614 0002526  85.4452 274.6969 13.18688006219520
